SKYSAT-C1               
1 41601U 16040C   26195.56858188  .00005206  00000+0  14713-3 0  9996
2 41601  96.9549 225.8096 0000326 325.6208  34.5016 15.36741342562070
LAPAN-A3                
1 41603U 16040E   26195.60275862  .00001911  00000+0  61721-4 0  9996
2 41603  97.1504 190.8524 0008258 278.8740  81.1568 15.33275818559012
GAOFEN-3                
1 41727U 16049A   26195.62702091 -.00000072  00000+0 -86470-5 0  9991
2 41727  98.4011 202.9989 0001768  85.1069 275.0322 14.42218404522602
SKYSAT-C4               
1 41771U 16058B   26195.59325767  .00010646  00000+0  19537-3 0  9991
2 41771  96.9161 216.2317 0003439 118.7398 241.4200 15.49423800549717
SKYSAT-C5               
1 41772U 16058C   26195.62409132  .00004219  00000+0  13170-3 0  9991
2 41772  97.0456 235.0345 0002484 162.0043 198.1289 15.33714312547958
SKYSAT-C2               
1 41773U 16058D   26195.57277648  .00007167  00000+0  16631-3 0  9991
2 41773  97.0156 216.6464 0001606 356.6805   3.4433 15.42671305549275
SKYSAT-C3               
1 41774U 16058E   26195.59018049  .00014777  00000+0  23247-3 0  9998
2 41774  96.8993 225.4015 0002497 132.3981 227.7486 15.53688858550369
ALSAT-1B                
1 41785U 16059C   26195.62924128 -.00000077  00000+0 -47593-5 0  9991
2 41785  97.7750 203.2088 0010270 131.3662 228.8431 14.72293249524616
PATHFINDER 1            
1 41787U 16059E   26195.54334885  .00000275  00000+0  56185-4 0  9993
2 41787  97.8177 193.5862 0029790 117.6844 242.7390 14.67692704523722
SCATSAT 1               
1 41790U 16059H   26195.60306049  .00000660  00000+0  93321-4 0  9996
2 41790  98.1179 259.6506 0055182 158.4402 201.9150 14.79586341105648
GOKTURK 1A              
1 41875U 16073A   26195.60715657  .00000050  00000+0  18962-4 0  9996
2 41875  98.1224  89.8481 0001416  81.0721 279.0641 14.62792363512833
RESOURCESAT-2A          
1 41877U 16074A   26195.59031855  .00000271  00000+0  14362-3 0  9992
2 41877  98.7528 268.8695 0002450  30.3215 329.8104 14.21609560498199
CARTOSAT-2D             
1 41948U 17008A   26195.62363405  .00002910  00000+0  14111-3 0  9996
2 41948  97.4100 254.4143 0005940 140.2477 219.9194 15.19284867521740
SENTINEL-2B             
1 42063U 17013A   26195.62009422  .00000269  00000+0  11930-3 0  9998
2 42063  98.5692 270.0064 0001214  89.4791 270.6531 14.30815716488562
CARTOSAT-2E             
1 42767U 17036C   26195.64139142  .00002613  00000+0  12719-3 0  9990
2 42767  97.4265 254.9890 0003183 191.6751 168.4410 15.19252946502312
FORMOSAT-5              
1 42920U 17049A   26195.56915896  .00000040  00000+0  21229-4 0  9993
2 42920  98.2247 270.2696 0011377   5.7754 354.3571 14.50907716470649
SENTINEL-5P             
1 42969U 17064A   26195.55040607 -.00000004  00000+0  18899-4 0  9991
2 42969  98.7929 137.4880 0001115  93.3043 266.8261 14.19523205453440
SKYSAT-C11              
1 42987U 17068A   26195.40750755  .00018876  00000+0  24123-3 0  9992
2 42987  97.4374 345.4561 0001131 159.6442 200.4859 15.59294676487484
SKYSAT-C10              
1 42988U 17068B   26195.34793202  .00006299  00000+0  18731-3 0  9994
2 42988  97.4536 332.4726 0001426 107.9390 252.2008 15.35106260486529
SKYSAT-C9               
1 42989U 17068C   26195.36612368  .00007549  00000+0  17779-3 0  9990
2 42989  97.4454 333.6893 0008722  47.4515 312.7467 15.42201357486948
SKYSAT-C8               
1 42990U 17068D   26195.34261580  .00006159  00000+0  16986-3 0  9991
2 42990  97.4553 332.3717 0001229 102.6122 257.5260 15.37480933486483
SKYSAT-C7               
1 42991U 17068E   26195.33707251  .00006026  00000+0  16644-3 0  9995
2 42991  97.4563 333.3575 0005781  24.3707 335.7809 15.37431785486540
SKYSAT-C6               
1 42992U 17068F   26195.34510753  .00005312  00000+0  16309-3 0  9991
2 42992  97.4602 333.2232 0005141  91.5369 268.6463 15.34160841486486
CARTOSAT-2F             
1 43111U 18004A   26195.60808259  .00002233  00000+0  10914-3 0  9991
2 43111  97.4781 254.9728 0002742 135.9727 224.1726 15.19268965471495
GAOFEN-1 02             
1 43259U 18031A   26195.61018505  .00000978  00000+0  14790-3 0  9992
2 43259  98.0521 258.0586 0001518 291.7931  68.3117 14.76473498446745
GAOFEN-1 03             
1 43260U 18031B   26195.58828038  .00000366  00000+0  60019-4 0  9997
2 43260  98.0504 257.8921 0002459  17.3363 342.7930 14.76462122446737
GAOFEN-1 04             
1 43262U 18031D   26195.63175575  .00000621  00000+0  96564-4 0  9994
2 43262  98.0522 258.1299 0001347  55.5167 304.6169 14.76472067446732
SENTINEL-3B             
1 43437U 18039A   26195.61047838  .00000003  00000+0  19336-4 0  9990
2 43437  98.6237 262.7475 0001120 120.2585 239.8707 14.26736045428039
GAOFEN-5 01             
1 43461U 18043A   26195.53210770  .00000122  00000+0  35142-4 0  9995
2 43461  98.4589 167.6956 0002128  33.6960 326.4374 14.60622973435688
GAOFEN-6                
1 43484U 18048A   26195.58650247  .00000291  00000+0  49461-4 0  9993
2 43484  98.0965 258.2869 0012135  83.3783 276.8807 14.76382979437431
