OBJECT_NAME,OBJECT_ID,EPOCH,MEAN_MOTION,ECCENTRICITY,INCLINATION,RA_OF_ASC_NODE,ARG_OF_PERICENTER,MEAN_ANOMALY,EPHEMERIS_TYPE,CLASSIFICATION_TYPE,NORAD_CAT_ID,ELEMENT_SET_NO,REV_AT_EPOCH,BSTAR,MEAN_MOTION_DOT,MEAN_MOTION_DDOT
SKYSAT-C1,2016-040C,2026-07-14T13:38:45.474432,15.36741342,.00003262,96.9549,225.8096,325.6208,34.5016,0,U,41601,999,56207,.14713204E-3,.5206E-4,0
LAPAN-A3,2016-040E,2026-07-14T14:27:58.344768,15.33275818,.0008258,97.1504,190.8524,278.8740,81.1568,0,U,41603,999,55901,.61720523E-4,.1911E-4,0
GAOFEN-3,2016-049A,2026-07-14T15:02:54.606624,14.42218404,.00017686,98.4011,202.9989,85.1069,275.0322,0,U,41727,999,52260,-.8646995E-5,-.72E-6,0
SKYSAT-C4,2016-058B,2026-07-14T14:14:17.462688,15.49423800,.00034399,96.9161,216.2317,118.7398,241.4200,0,U,41771,999,54971,.19537231E-3,.10646E-3,0
SKYSAT-C5,2016-058C,2026-07-14T14:58:41.490048,15.33714312,.00024843,97.0456,235.0345,162.0043,198.1289,0,U,41772,999,54795,.13170415E-3,.4219E-4,0
SKYSAT-C2,2016-058D,2026-07-14T13:44:47.887872,15.42671305,.00016064,97.0156,216.6464,356.6805,3.4433,0,U,41773,999,54927,.16630534E-3,.7167E-4,0
SKYSAT-C3,2016-058E,2026-07-14T14:09:51.594336,15.53688858,.00024977,96.8993,225.4015,132.3981,227.7486,0,U,41774,999,55036,.23246872E-3,.14777E-3,0
ALSAT-1B,2016-059C,2026-07-14T15:06:06.446592,14.72293249,.001027,97.7750,203.2088,131.3662,228.8431,0,U,41785,999,52461,-.4759259E-5,-.77E-6,0
PATHFINDER 1,2016-059E,2026-07-14T13:02:25.340640,14.67692704,.00297901,97.8177,193.5862,117.6844,242.7390,0,U,41787,999,52372,.56184676E-4,.275E-5,0
SCATSAT 1,2016-059H,2026-07-14T14:28:24.426336,14.79586341,.00551828,98.1179,259.6506,158.4402,201.9150,0,U,41790,999,10564,.93321391E-4,.66E-5,0
GOKTURK 1A,2016-073A,2026-07-14T14:34:18.327648,14.62792363,.0001416,98.1224,89.8481,81.0721,279.0641,0,U,41875,999,51283,.18962125E-4,.5E-6,0
RESOURCESAT-2A,2016-074A,2026-07-14T14:10:03.522720,14.21609560,.000245,98.7528,268.8695,30.3215,329.8104,0,U,41877,999,49819,.14361961E-3,.271E-5,0
CARTOSAT-2D,2017-008A,2026-07-14T14:58:01.981920,15.19284867,.00059407,97.4100,254.4143,140.2477,219.9194,0,U,41948,999,52174,.14110501E-3,.291E-4,0
SENTINEL-2B,2017-013A,2026-07-14T14:52:56.140608,14.30815716,.00012145,98.5692,270.0064,89.4791,270.6531,0,U,42063,999,48856,.11930145E-3,.269E-5,0
CARTOSAT-2E,2017-036C,2026-07-14T15:23:36.218688,15.19252946,.00031832,97.4265,254.9890,191.6751,168.4410,0,U,42767,999,50231,.12719376E-3,.2613E-4,0
FORMOSAT-5,2017-049A,2026-07-14T13:39:35.334144,14.50907716,.0011377,98.2247,270.2696,5.7754,354.3571,0,U,42920,999,47064,.21229284E-4,.4E-6,0
SENTINEL-5P,2017-064A,2026-07-14T13:12:35.084448,14.19523205,.00011154,98.7929,137.4880,93.3043,266.8261,0,U,42969,999,45344,.18898986E-4,-.4E-7,0
SKYSAT-C11,2017-068A,2026-07-14T09:46:48.652320,15.59294676,.00011315,97.4374,345.4561,159.6442,200.4859,0,U,42987,999,48748,.24123399E-3,.18876E-3,0
SKYSAT-C10,2017-068B,2026-07-14T08:21:01.326528,15.35106260,.00014268,97.4536,332.4726,107.9390,252.2008,0,U,42988,999,48652,.18731286E-3,.6299E-4,0
SKYSAT-C9,2017-068C,2026-07-14T08:47:13.085952,15.42201357,.00087227,97.4454,333.6893,47.4515,312.7467,0,U,42989,999,48694,.17778856E-3,.7549E-4,0
SKYSAT-C8,2017-068D,2026-07-14T08:13:22.005120,15.37480933,.00012294,97.4553,332.3717,102.6122,257.5260,0,U,42990,999,48648,.16985915E-3,.6159E-4,0
SKYSAT-C7,2017-068E,2026-07-14T08:05:23.064864,15.37431785,.00057812,97.4563,333.3575,24.3707,335.7809,0,U,42991,999,48654,.16643642E-3,.6026E-4,0
SKYSAT-C6,2017-068F,2026-07-14T08:16:57.290592,15.34160841,.00051416,97.4602,333.2232,91.5369,268.6463,0,U,42992,999,48648,.16309447E-3,.5312E-4,0
CARTOSAT-2F,2018-004A,2026-07-14T14:35:38.335776,15.19268965,.00027424,97.4781,254.9728,135.9727,224.1726,0,U,43111,999,47149,.10914241E-3,.2233E-4,0
GAOFEN-1 02,2018-031A,2026-07-14T14:38:39.988320,14.76473498,.00015188,98.0521,258.0586,291.7931,68.3117,0,U,43259,999,44674,.14790482E-3,.978E-5,0
GAOFEN-1 03,2018-031B,2026-07-14T14:07:07.424832,14.76462122,.0002459,98.0504,257.8921,17.3363,342.7930,0,U,43260,999,44673,.60019045E-4,.366E-5,0
GAOFEN-1 04,2018-031D,2026-07-14T15:09:43.696800,14.76472067,.00013479,98.0522,258.1299,55.5167,304.6169,0,U,43262,999,44673,.96563751E-4,.621E-5,0
SENTINEL-3B,2018-039A,2026-07-14T14:39:05.332032,14.26736045,.00011209,98.6237,262.7475,120.2585,239.8707,0,U,43437,999,42803,.1933645E-4,.3E-7,0
GAOFEN-5 01,2018-043A,2026-07-14T12:46:14.105280,14.60622973,.0002128,98.4589,167.6956,33.6960,326.4374,0,U,43461,999,43568,.35142087E-4,.122E-5,0
GAOFEN-6,2018-048A,2026-07-14T14:04:33.813408,14.76382979,.00121355,98.0965,258.2869,83.3783,276.8807,0,U,43484,999,43743,.49460565E-4,.291E-5,0
